[{"name":"ceara","contact":"85999999999","opening_hours":"8:00 as 17:00","description":"estado","latitude":10,"longitude":11},{"name":"ceara","contact":"85999999999","opening_hours":"8:00 as 17:00","description":"estado","latitude":10,"longitude":11},{"name":"ceara","contact":"85999999999","opening_hours":"8:00 as 17:00","description":"estado","latitude":10,"longitude":11},{"name":"ceara","contact":"85999999999","opening_hours":"8:00 as 17:00","description":"estado","latitude":10,"longitude":11},{"name":"ceara","contact":"85999999999","opening_hours":"8:00 as 17:00","description":"estado","latitude":10,"longitude":11},{"name":"ceara","contact":"85999999999","opening_hours":"8:00 as 17:00","description":"estado","latitude":10,"longitude":11},{"name":"ceara","contact":"85999999999","opening_hours":"8:00 as 17:00","description":"estado","latitude":10,"longitude":11},{"name":"ceara","contact":"85999999999","opening_hours":"8:00 as 17:00","description":"estado","latitude":10,"longitude":11},{"name":"ceara","contact":"85999999999","opening_hours":"8:00 as 17:00","description":"estado","latitude":10,"longitude":11},{"name":"bahia","contact":"85999999999","opening_hours":"8:00 as 17:00","description":"estado","latitude":10,"longitude":11}]